GSAT0211 (PRN E02)      
1 41549U 16030A   17345.31170758 -.00000065  00000-0  00000-0 0  9997
2 41549  57.0246 307.0612 0004340 288.7121  71.2262  1.70474185  9655
